{
  "norad_id": 66887,
  "name": "STARLINK-35925",
  "history": [
    {
      "epoch": "2026-03-28T19:58:05.997504",
      "apogee_km": 475.8738513567232,
      "perigee_km": 474.5079831028197,
      "latitude_deg": -19.799037868963214,
      "longitude_deg": -131.4266694399994,
      "semi_major_axis_km": 6853.327917229772,
      "eccentricity": 9.965e-05,
      "inclination_deg": 53.1598,
      "raan_deg": 295.3435,
      "arg_perigee_deg": 105.3593,
      "mean_anomaly_deg": 254.7518,
      "mean_motion_rev_day": 15.30208089
    }
  ]
}