{"fetched_at":"2026-03-29T16:36:15Z","count":15609,"tles":[{"name":"STARLINK-35925","line1":"1 66887U 25283K   26087.83201386  .00020395  00000+0  69865-3 0  9994","line2":"2 66887  53.1598 295.3435 0000996 105.3593 254.7518 15.30208089 18770","category":"Starlink"}]}